start=new Date('2022-03-18T00:00:00.000Z').valueOf();
sats=[{"MEAN_MOTION_DDOT":"0.0000000000000","OBJECT_NAME":"STARLINK-3243","SITE":"AFETR","BSTAR":"0.00013536000000","ECCENTRICITY":"0.00028850","PERIAPSIS":"347.733","ARG_OF_PERICENTER":"14.3077","COUNTRY_CODE":"US","RA_OF_ASC_NODE":"348.1042","FILE":"3363151","MEAN_ANOMALY":"109.5904","REV_AT_EPOCH":"370","MEAN_MOTION_DOT":"0.00018444","EPOCH":"2022-03-17T22:00:00.999936","GP_ID":"198995277","NORAD_CAT_ID":"51116","SEMIMAJOR_AXIS":"6727.809","APOAPSIS":"351.615","PERIOD":"91.531","EPHEMERIS_TYPE":"0","DECAY_DATE":null,"OBJECT_ID":"2022-005N","MEAN_ELEMENT_THEORY":"SGP4","CLASSIFICATION_TYPE":"U","OBJECT_TYPE":"PAYLOAD","CENTER_NAME":"EARTH","TLE_LINE2":"2 51116  53.2151 348.1042 0002885  14.3077 109.5904 15.73230159  3704","LAUNCH_DATE":"2022-01-19","TIME_SYSTEM":"UTC","RCS_SIZE":"LARGE","MEAN_MOTION":"15.73230159","INCLINATION":"53.2151","ELEMENT_SET_NO":"999","TLE_LINE1":"1 51116U 22005N   22076.91667824  .00018444  00000-0  13536-3 0  9995","REF_FRAME":"TEME"},{"GP_ID":"198995501","EPOCH":"2022-03-17T22:00:00.999936","MEAN_MOTION_DOT":"-0.00026488","REV_AT_EPOCH":"370","EPHEMERIS_TYPE":"0","PERIOD":"91.530","APOAPSIS":"351.759","NORAD_CAT_ID":"51117","SEMIMAJOR_AXIS":"6727.733","SITE":"AFETR","OBJECT_NAME":"STARLINK-3391","MEAN_MOTION_DDOT":"0.0000000000000","MEAN_ANOMALY":"117.2880","FILE":"3363151","ARG_OF_PERICENTER":"11.6602","COUNTRY_CODE":"US","RA_OF_ASC_NODE":"348.0920","PERIAPSIS":"347.438","ECCENTRICITY":"0.00032110","BSTAR":"-0.00018437000000","RCS_SIZE":"LARGE","TIME_SYSTEM":"UTC","LAUNCH_DATE":"2022-01-19","TLE_LINE2":"2 51117  53.2169 348.0920 0003211  11.6602 117.2880 15.73256797  3701","REF_FRAME":"TEME","TLE_LINE1":"1 51117U 22005P   22076.91667824 -.00026488  00000-0 -18437-3 0  9990","ELEMENT_SET_NO":"999","MEAN_MOTION":"15.73256797","INCLINATION":"53.2169","CLASSIFICATION_TYPE":"U","MEAN_ELEMENT_THEORY":"SGP4","DECAY_DATE":null,"OBJECT_ID":"2022-005P","CENTER_NAME":"EARTH","OBJECT_TYPE":"PAYLOAD"},{"ECCENTRICITY":"0.00034460","BSTAR":"0.00013073000000","PERIAPSIS":"347.429","COUNTRY_CODE":"US","RA_OF_ASC_NODE":"348.0975","ARG_OF_PERICENTER":"8.6382","FILE":"3363151","MEAN_ANOMALY":"117.1211","MEAN_MOTION_DDOT":"0.0000000000000","OBJECT_NAME":"STARLINK-3394","SITE":"AFETR","SEMIMAJOR_AXIS":"6727.882","NORAD_CAT_ID":"51118","APOAPSIS":"352.065","PERIOD":"91.533","EPHEMERIS_TYPE":"0","REV_AT_EPOCH":"370","MEAN_MOTION_DOT":"0.00017771","EPOCH":"2022-03-17T22:00:00.999936","GP_ID":"198995837","OBJECT_TYPE":"PAYLOAD","CENTER_NAME":"EARTH","DECAY_DATE":null,"OBJECT_ID":"2022-005Q","MEAN_ELEMENT_THEORY":"SGP4","CLASSIFICATION_TYPE":"U","MEAN_MOTION":"15.73204616","INCLINATION":"53.2159","ELEMENT_SET_NO":"999","REF_FRAME":"TEME","TLE_LINE1":"1 51118U 22005Q   22076.91667824  .00017771  00000-0  13073-3 0  9995","TLE_LINE2":"2 51118  53.2159 348.0975 0003446   8.6382 117.1211 15.73204616  3702","LAUNCH_DATE":"2022-01-19","TIME_SYSTEM":"UTC","RCS_SIZE":"LARGE"},{"OBJECT_NAME":"STARLINK-3390","MEAN_MOTION_DDOT":"0.0000000000000","SITE":"AFETR","PERIAPSIS":"347.735","BSTAR":"0.00010706000000","ECCENTRICITY":"0.00029220","ARG_OF_PERICENTER":"20.5820","COUNTRY_CODE":"US","RA_OF_ASC_NODE":"348.0914","MEAN_ANOMALY":"108.9558","FILE":"3363151","REV_AT_EPOCH":"370","EPOCH":"2022-03-17T22:00:00.999936","MEAN_MOTION_DOT":"0.00014444","GP_ID":"198995053","NORAD_CAT_ID":"51119","SEMIMAJOR_AXIS":"6727.836","APOAPSIS":"351.667","PERIOD":"91.532","EPHEMERIS_TYPE":"0","OBJECT_ID":"2022-005R","DECAY_DATE":null,"CLASSIFICATION_TYPE":"U","MEAN_ELEMENT_THEORY":"SGP4","OBJECT_TYPE":"PAYLOAD","CENTER_NAME":"EARTH","LAUNCH_DATE":"2022-01-19","TLE_LINE2":"2 51119  53.2159 348.0914 0002922  20.5820 108.9558 15.73220808  3707","TIME_SYSTEM":"UTC","RCS_SIZE":"LARGE","MEAN_MOTION":"15.73220808","INCLINATION":"53.2159","TLE_LINE1":"1 51119U 22005R   22076.91667824  .00014444  00000-0  10706-3 0  9990","REF_FRAME":"TEME","ELEMENT_SET_NO":"999"},{"PERIOD":"91.531","EPHEMERIS_TYPE":"0","SEMIMAJOR_AXIS":"6727.812","NORAD_CAT_ID":"51120","APOAPSIS":"351.669","EPOCH":"2022-03-17T22:00:00.999936","MEAN_MOTION_DOT":"0.00017530","GP_ID":"198995613","REV_AT_EPOCH":"370","ARG_OF_PERICENTER":"13.0724","COUNTRY_CODE":"US","RA_OF_ASC_NODE":"348.0884","MEAN_ANOMALY":"117.7770","FILE":"3363151","PERIAPSIS":"347.685","ECCENTRICITY":"0.00029610","BSTAR":"0.00012889000000","SITE":"AFETR","OBJECT_NAME":"STARLINK-3398","MEAN_MOTION_DDOT":"0.0000000000000","INCLINATION":"53.2171","MEAN_MOTION":"15.73229189","REF_FRAME":"TEME","TLE_LINE1":"1 51120U 22005S   22076.91667824  .00017530  00000-0  12889-3 0  9995","ELEMENT_SET_NO":"999","TIME_SYSTEM":"UTC","RCS_SIZE":"LARGE","LAUNCH_DATE":"2022-01-19","TLE_LINE2":"2 51120  53.2171 348.0884 0002961  13.0724 117.7770 15.73229189  3707","CENTER_NAME":"EARTH","OBJECT_TYPE":"PAYLOAD","CLASSIFICATION_TYPE":"U","MEAN_ELEMENT_THEORY":"SGP4","OBJECT_ID":"2022-005S","DECAY_DATE":null},{"SITE":"AFETR","MEAN_MOTION_DDOT":"0.0000000000000","OBJECT_NAME":"STARLINK-3399","FILE":"3363151","MEAN_ANOMALY":"118.4036","COUNTRY_CODE":"US","ARG_OF_PERICENTER":"9.8092","RA_OF_ASC_NODE":"348.0694","ECCENTRICITY":"0.00036330","BSTAR":"-0.00000908280000","PERIAPSIS":"347.301","GP_ID":"198995165","MEAN_MOTION_DOT":"-0.00001899","EPOCH":"2022-03-17T22:00:00.999936","REV_AT_EPOCH":"370","EPHEMERIS_TYPE":"0","PERIOD":"91.533","APOAPSIS":"352.190","NORAD_CAT_ID":"51121","SEMIMAJOR_AXIS":"6727.880","MEAN_ELEMENT_THEORY":"SGP4","CLASSIFICATION_TYPE":"U","DECAY_DATE":null,"OBJECT_ID":"2022-005T","CENTER_NAME":"EARTH","OBJECT_TYPE":"PAYLOAD","RCS_SIZE":"LARGE","TIME_SYSTEM":"UTC","TLE_LINE2":"2 51121  53.2174 348.0694 0003633   9.8092 118.4036 15.73205207  3706","LAUNCH_DATE":"2022-01-19","ELEMENT_SET_NO":"999","TLE_LINE1":"1 51121U 22005T   22076.91667824 -.00001899  00000-0 -90828-5 0  9990","REF_FRAME":"TEME","MEAN_MOTION":"15.73205207","INCLINATION":"53.2174"},{"MEAN_MOTION_DOT":"0.00016308","EPOCH":"2022-03-17T22:00:00.999936","GP_ID":"198995725","REV_AT_EPOCH":"370","PERIOD":"91.531","EPHEMERIS_TYPE":"0","NORAD_CAT_ID":"51122","SEMIMAJOR_AXIS":"6727.812","APOAPSIS":"351.677","SITE":"AFETR","MEAN_MOTION_DDOT":"0.0000000000000","OBJECT_NAME":"STARLINK-3373","COUNTRY_CODE":"US","ARG_OF_PERICENTER":"18.1171","RA_OF_ASC_NODE":"348.0897","FILE":"3363151","MEAN_ANOMALY":"112.0622","ECCENTRICITY":"0.00029720","BSTAR":"0.00012023000000","PERIAPSIS":"347.678","TIME_SYSTEM":"UTC","RCS_SIZE":"LARGE","TLE_LINE2":"2 51122  53.2167 348.0897 0002972  18.1171 112.0622 15.73229092  3709","LAUNCH_DATE":"2022-01-19","INCLINATION":"53.2167","MEAN_MOTION":"15.73229092","ELEMENT_SET_NO":"999","REF_FRAME":"TEME","TLE_LINE1":"1 51122U 22005U   22076.91667824  .00016308  00000-0  12023-3 0  9999","MEAN_ELEMENT_THEORY":"SGP4","CLASSIFICATION_TYPE":"U","OBJECT_ID":"2022-005U","DECAY_DATE":null,"CENTER_NAME":"EARTH","OBJECT_TYPE":"PAYLOAD"},{"NORAD_CAT_ID":"51123","SEMIMAJOR_AXIS":"6727.764","APOAPSIS":"351.777","PERIOD":"91.531","EPHEMERIS_TYPE":"0","REV_AT_EPOCH":"370","MEAN_MOTION_DOT":"0.00019163","EPOCH":"2022-03-17T22:00:00.999936","GP_ID":"198995390","BSTAR":"0.00014036000000","ECCENTRICITY":"0.00031920","PERIAPSIS":"347.482","COUNTRY_CODE":"US","ARG_OF_PERICENTER":"13.2591","RA_OF_ASC_NODE":"348.0868","FILE":"3363151","MEAN_ANOMALY":"118.1681","MEAN_MOTION_DDOT":"0.0000000000000","OBJECT_NAME":"STARLINK-3392","SITE":"AFETR","MEAN_MOTION":"15.73245934","INCLINATION":"53.2171","ELEMENT_SET_NO":"999","REF_FRAME":"TEME","TLE_LINE1":"1 51123U 22005V   22076.91667824  .00019163  00000-0  14036-3 0  9998","TLE_LINE2":"2 51123  53.2171 348.0868 0003192  13.2591 118.1681 15.73245934  3705","LAUNCH_DATE":"2022-01-19","TIME_SYSTEM":"UTC","RCS_SIZE":"LARGE","OBJECT_TYPE":"PAYLOAD","CENTER_NAME":"EARTH","DECAY_DATE":null,"OBJECT_ID":"2022-005V","MEAN_ELEMENT_THEORY":"SGP4","CLASSIFICATION_TYPE":"U"},{"TLE_LINE2":"2 51124  53.2178 348.5016 0001172  71.6061 230.9558 15.60529985  3702","LAUNCH_DATE":"2022-01-19","RCS_SIZE":"LARGE","TIME_SYSTEM":"UTC","ELEMENT_SET_NO":"999","REF_FRAME":"TEME","TLE_LINE1":"1 51124U 22005W   22076.91667824 -.00715174  00000-0 -92906-2 0  9997","MEAN_MOTION":"15.60529985","INCLINATION":"53.2178","OBJECT_ID":"2022-005W","DECAY_DATE":null,"MEAN_ELEMENT_THEORY":"SGP4","CLASSIFICATION_TYPE":"U","OBJECT_TYPE":"PAYLOAD","CENTER_NAME":"EARTH","REV_AT_EPOCH":"370","GP_ID":"198995278","MEAN_MOTION_DOT":"-0.00715174","EPOCH":"2022-03-17T22:00:00.999936","APOAPSIS":"386.920","SEMIMAJOR_AXIS":"6764.262","NORAD_CAT_ID":"51124","EPHEMERIS_TYPE":"0","PERIOD":"92.276","MEAN_MOTION_DDOT":"0.0000000000000","OBJECT_NAME":"STARLINK-3389","SITE":"AFETR","BSTAR":"-0.00929060000000","ECCENTRICITY":"0.00011720","PERIAPSIS":"385.334","FILE":"3363151","MEAN_ANOMALY":"230.9558","ARG_OF_PERICENTER":"71.6061","COUNTRY_CODE":"US","RA_OF_ASC_NODE":"348.5016"},{"APOAPSIS":"392.901","SEMIMAJOR_AXIS":"6770.031","NORAD_CAT_ID":"51125","EPHEMERIS_TYPE":"0","PERIOD":"92.394","REV_AT_EPOCH":"370","GP_ID":"198995502","EPOCH":"2022-03-17T22:00:00.999936","MEAN_MOTION_DOT":"-0.00712779","PERIAPSIS":"390.891","BSTAR":"-0.00999150000000","ECCENTRICITY":"0.00014850","MEAN_ANOMALY":"189.2080","FILE":"3363151","ARG_OF_PERICENTER":"51.1060","COUNTRY_CODE":"US","RA_OF_ASC_NODE":"348.4952","OBJECT_NAME":"STARLINK-3387","MEAN_MOTION_DDOT":"0.0000000000000","SITE":"AFETR","REF_FRAME":"TEME","TLE_LINE1":"1 51125U 22005X   22076.91667824 -.00712779  00000-0 -99915-2 0  9993","ELEMENT_SET_NO":"999","MEAN_MOTION":"15.58535805","INCLINATION":"53.2177","LAUNCH_DATE":"2022-01-19","TLE_LINE2":"2 51125  53.2177 348.4952 0001485  51.1060 189.2080 15.58535805  3700","RCS_SIZE":"LARGE","TIME_SYSTEM":"UTC","OBJECT_TYPE":"PAYLOAD","CENTER_NAME":"EARTH","DECAY_DATE":null,"OBJECT_ID":"2022-005X","CLASSIFICATION_TYPE":"U","MEAN_ELEMENT_THEORY":"SGP4"}];
